BEIDOU-2 IGSO-1 (C06)   
1 36828U 10036A   25217.28066696 -.00000119  00000+0  00000+0 0  9997
2 36828  54.2813 165.8212 0048975 217.5524 138.7319  1.00262878 54922
BEIDOU-2 G4 (C04)       
1 37210U 10057A   25217.60720036 -.00000106  00000+0  00000+0 0  9993
2 37210   2.8587  70.3699 0005824 165.5631  97.0582  1.00273434 54122
BEIDOU-2 IGSO-2 (C07)   
1 37256U 10068A   25217.58834771 -.00000157  00000+0  00000+0 0  9990
2 37256  48.1153 275.7431 0048437 215.3290 143.0854  1.00274056 53620
BEIDOU-2 IGSO-3 (C08)   
1 37384U 11013A   25217.47293569 -.00000138  00000+0  00000+0 0  9994
2 37384  61.9575  43.1389 0032549 175.9541  10.4710  1.00254764 52495
BEIDOU-2 IGSO-4 (C09)   
1 37763U 11038A   25215.84982200 -.00000039  00000+0  00000+0 0  9998
2 37763  54.5832 168.5189 0144701 231.1357 313.8504  1.00268371 51460
BEIDOU-2 IGSO-5 (C10)   
1 37948U 11073A   25217.58370437 -.00000113  00000+0  00000+0 0  9991
2 37948  48.2527 275.4487 0110022 220.9495 124.3399  1.00277025 50230
BEIDOU-2 G5 (C05)       
1 38091U 12008A   25217.55628222  .00000062  00000+0  00000+0 0  9997
2 38091   2.7820  71.1663 0005745 254.0060 248.1427  1.00275005 49207
BEIDOU-2 M3 (C11)       
1 38250U 12018A   25215.31017484 -.00000090  00000+0  00000+0 0  9991
2 38250  56.0275 315.5743 0022414 265.8621  93.9154  1.86233781 90027
BEIDOU-2 M4 (C12)       
1 38251U 12018B   25215.24268897 -.00000090  00000+0  00000+0 0  9990
2 38251  55.9300 314.8163 0013584 264.9549  94.9245  1.86232114 90021
BEIDOU-2 M6 (C14)       
1 38775U 12050B   25217.10111813 -.00000026  00000+0  00000+0 0  9998
2 38775  56.2620  73.3673 0012296 356.0897   3.9812  1.86231144 87424
BEIDOU-2 G6 (C02)       
1 38953U 12059A   25217.63118356 -.00000171  00000+0  00000+0 0  9993
2 38953   3.6148  76.8469 0007829 322.8669 225.9770  1.00271606 46740
BEIDOU-3S IGSO-1S (C31) 
1 40549U 15019A   25216.70663235 -.00000160  00000+0  00000+0 0  9992
2 40549  49.7943 299.2761 0041009 194.5949 168.6016  1.00267675 37902
BEIDOU-3S M2S (C58)     
1 40748U 15037A   25215.44652096 -.00000086  00000+0  00000+0 0  9993
2 40748  55.1501 312.9701 0010690 250.4520 109.4698  1.86229394 68206
BEIDOU-3S M1S (C57)     
1 40749U 15037B   25217.30475560 -.00000072  00000+0  00000+0 0  9995
2 40749  55.1452 312.8976 0002415  13.7568 346.2910  1.86254037 68247
BEIDOU-3S IGSO-2S (C56) 
1 40938U 15053A   25217.58327396 -.00000058  00000+0  00000+0 0  9990
2 40938  49.7099 262.5344 0060396 190.9726 164.4191  1.00256661 36189
BEIDOU-2 IGSO-6 (C13)   
1 41434U 16021A   25215.49313833 -.00000134  00000+0  00000+0 0  9992
2 41434  59.7799  41.2062 0054866 227.4756 317.0128  1.00279112 34294
BEIDOU-2 G7 (C03)       
1 41586U 16037A   25217.58873234 -.00000347  00000+0  00000+0 0  9991
2 41586   1.8812  69.3812 0009029  12.6703 194.7539  1.00267617  3724
BEIDOU-3 M1 (C19)       
1 43001U 17069A   25216.86670977 -.00000028  00000+0  00000+0 0  9996
2 43001  56.4101  73.5252 0008250 320.4246  39.5947  1.86231521 52718
BEIDOU-3 M2 (C20)       
1 43002U 17069B   25217.34178620 -.00000022  00000+0  00000+0 0  9993
2 43002  56.4102  73.5453 0007368 353.8350   6.2375  1.86230975 52716
BEIDOU-3 M7 (C27)       
1 43107U 18003A   25214.40178665 -.00000094  00000+0  00000+0 0  9990
2 43107  54.6094 313.4155 0003633  95.6672 264.4095  1.86232702 51419
BEIDOU-3 M8 (C28)       
1 43108U 18003B   25215.41951290 -.00000087  00000+0  00000+0 0  9998
2 43108  54.6014 313.3638 0003767 251.2039 108.7918  1.86231148 51442
BEIDOU-3 M4 (C22)       
1 43207U 18018A   25212.63927913 -.00000061  00000+0  00000+0 0  9992
2 43207  56.3656  73.7399 0006600  26.2584 333.8454  1.86231491 50770
BEIDOU-3 M3 (C21)       
1 43208U 18018B   25217.00149432 -.00000026  00000+0  00000+0 0  9992
2 43208  56.3687  73.5999 0006695 340.4588  19.5956  1.86231375 50853
BEIDOU-3 M9 (C29)       
1 43245U 18029A   25216.68153334 -.00000074  00000+0  00000+0 0  9997
2 43245  54.4794 311.0035 0001482 212.6045 147.4288  1.86232964 50001
BEIDOU-3 M10 (C30)      
1 43246U 18029B   25217.15210937 -.00000070  00000+0  00000+0 0  9990
2 43246  54.4761 311.0139 0002704  19.3369 340.7170  1.86229296 49998
BEIDOU-2 IGSO-7 (C16)   
1 43539U 18057A   25217.28092696 -.00000123  00000+0  00000+0 0  9999
2 43539  55.1633 165.8046 0092886 237.1211 121.7989  1.00296590 25960
BEIDOU-3 M5 (C23)       
1 43581U 18062A   25215.22913164  .00000078  00000+0  00000+0 0  9994
2 43581  54.0999 193.1138 0005439 287.7742  72.1539  1.86228894 47717
BEIDOU-3 M6 (C24)       
1 43582U 18062B   25215.09296312  .00000079  00000+0  00000+0 0  9990
2 43582  54.0994 193.1076 0005131   6.2998 353.6942  1.86229868 47717
BEIDOU-3 M12 (C26)      
1 43602U 18067A   25215.02928800  .00000077  00000+0  00000+0 0  9993
2 43602  54.1932 191.8288 0007529  25.0102 335.0123  1.86227805 47198
BEIDOU-3 M11 (C25)      
1 43603U 18067B   25215.16346090  .00000077  00000+0  00000+0 0  9994
2 43603  54.1903 191.7885 0004381   8.8371 351.1565  1.86227307 47229
BEIDOU-3 M13 (C32)      
1 43622U 18072A   25216.73249672 -.00000029  00000+0  00000+0 0  9991
2 43622  56.3421  73.1237 0005165 326.5761  33.4702  1.86231494 46760
BEIDOU-3 M14 (C33)      
1 43623U 18072B   25215.52405757 -.00000042  00000+0  00000+0 0  9991
2 43623  56.3430  73.1576 0004611   9.2293 350.8536  1.86231508 46731
BEIDOU-3 M16 (C35)      
1 43647U 18078A   25217.29424530 -.00000069  00000+0  00000+0 0  9998
2 43647  54.3748 311.0458 0006068  29.1392 330.9387  1.86232378 46277
BEIDOU-3 M15 (C34)      
1 43648U 18078B   25216.34954934 -.00000077  00000+0  00000+0 0  9999
2 43648  54.3715 311.0801 0002907  45.9069 314.1584  1.86232474 46280
BEIDOU-3 G1 (C59)       
1 43683U 18085A   25217.59975785 -.00000274  00000+0  00000+0 0  9990
2 43683   2.7848 106.7214 0004226   3.1663 200.3348  1.00266378 24895
BEIDOU-3 M17 (C36)      
1 43706U 18093A   25217.04265352  .00000067  00000+0  00000+0 0  9996
2 43706  54.1834 193.0212 0010064 288.7237  71.1504  1.86228480 45650
BEIDOU-3 M18 (C37)      
1 43707U 18093B   25212.07207974  .00000075  00000+0  00000+0 0  9990
2 43707  54.1841 193.1813 0008208 315.4999  44.4161  1.86230112 45553
BEIDOU-3 IGSO-1 (C38)   
1 44204U 19023A   25216.42555722 -.00000188  00000+0  00000+0 0  9993
2 44204  58.2475  40.9194 0024252 215.2771 329.0647  1.00283645  4031
BEIDOU-2 G8 (C01)       
1 44231U 19027A   25217.60169558 -.00000241  00000+0  00000+0 0  9996
2 44231   1.8116  75.2200 0003413 249.6839 350.6650  1.00272870 22917
BEIDOU-3 IGSO-2 (C39)   
1 44337U 19035A   25216.75322611 -.00000133  00000+0  00000+0 0  9998
2 44337  55.2166 161.6442 0035339 210.0832 331.1437  1.00256005 22499
BEIDOU-3 M24 (C46)      
1 44542U 19061A   25213.75413906  .00000083  00000+0  00000+0 0  9993
2 44542  54.4112 193.5003 0008401 352.7060   7.2688  1.86229413 39846
BEIDOU-3 M23 (C45)      
1 44543U 19061B   25214.95540703  .00000081  00000+0  00000+0 0  9991
2 44543  54.4096 193.4283 0005801 333.6798  24.4558  1.86229633 39867
BEIDOU-3 IGSO-3 (C40)   
1 44709U 19073A   25216.58940097 -.00000162  00000+0  00000+0 0  9990
2 44709  55.3412 284.3197 0045583 190.1881 169.8312  1.00283973 21289
BEIDOU-3 M22 (C44)      
1 44793U 19078A   25216.28068036 -.00000077  00000+0  00000+0 0  9994
2 44793  54.2225 310.9624 0004942  39.4500 320.6273  1.86232329 38745
BEIDOU-3 M21 (C43)      
1 44794U 19078B   25216.41531951 -.00000076  00000+0  00000+0 0  9990
2 44794  54.1958 310.9252 0002911  33.8409 326.2194  1.86227921 38752
BEIDOU-3 M19 (C41)      
1 44864U 19090A   25214.22573028 -.00000054  00000+0  00000+0 0  9996
2 44864  56.2739  73.3555 0016116 290.5684 235.9928  1.86231879 38292
BEIDOU-3 M20 (C42)      
1 44865U 19090B   25216.23974929 -.00000035  00000+0  00000+0 0  9994
2 44865  56.2773  73.3229 0013832 305.7954 220.6979  1.86231766 38315
BEIDOU-3 G2 (C60)       
1 45344U 20017A   25217.62850892 -.00000135  00000+0  00000+0 0  9995
2 45344   2.9569  41.4198 0001840  97.3417 121.9580  1.00272758 20093
BEIDOU-3 G3 (C61)       
1 45807U 20040A   25217.58873234 -.00000347  00000+0  00000+0 0  9990
2 45807   1.6746  65.0338 0004432 344.8623 226.9864  1.00270352 18903
BEIDOU-3 G4 (C62)       
1 56564U 23066A   25217.60676988 -.00000103  00000+0  00000+0 0  9993
2 56564   1.1100 294.1963 0006690 197.1083 201.4790  1.00273676  8233
BEIDOU-3 M28 (C50)      
1 58654U 23207A   25217.03158815 -.00000029  00000+0  00000+0 0  9990
2 58654  55.4661  72.9911 0001522   5.5084 354.5725  1.86230067 10957
BEIDOU-3 M26 (C48)      
1 58655U 23207B   25216.83034108 -.00000031  00000+0  00000+0 0  9999
2 58655  55.4679  72.9841 0001190 295.7082  64.3579  1.86231763 10936
BEIDOU-3 M25 (C47)      
1 61186U 24168B   25217.20979356 -.00000073  00000+0  00000+0 0  9990
2 61186  54.7526 313.2086 0004027 280.4182  91.4926  1.86230312  5893
BEIDOU-3 M27 (C49)      
1 61187U 24168C   25217.49592228 -.00000071  00000+0  00000+0 0  9999
2 61187  54.7477 313.1827 0000623 352.0105 346.6311  1.86230340  3375
